{"type":"FeatureCollection","features":[{"type":"Feature","properties":{"Nearest_Kroger":"1300 Anderson Crossing Dr","City":" Lawrenceburg","State":"KY","Zip":"40342","Lat":"38.01753523","Long":"-84.91042751"},"geometry":{"type":"Point","coordinates":[-84.910428,38.017535]}},{"type":"Feature","properties":{"Nearest_Kroger":"704 Euclid Ave","City":" Lexington","State":"KY","Zip":"40502","Lat":"38.0309358","Long":"-84.49298648"},"geometry":{"type":"Point","coordinates":[-84.492986,38.030936]}},{"type":"Feature","properties":{"Nearest_Kroger":"2945 Scottsville Rd","City":" Bowling Green","State":"KY","Zip":"42104","Lat":"36.9432139","Long":"-86.42540711"},"geometry":{"type":"Point","coordinates":[-86.425407,36.943214]}},{"type":"Feature","properties":{"Nearest_Kroger":"102 W John Rowan Blvd","City":" Bardstown","State":"KY","Zip":"40004","Lat":"37.82640342","Long":"-85.46435233"},"geometry":{"type":"Point","coordinates":[-85.464352,37.826403]}},{"type":"Feature","properties":{"Nearest_Kroger":"1213 Skyline Dr","City":" Hopkinsville","State":"KY","Zip":"42240","Lat":"36.84145038","Long":"-87.47785368"},"geometry":{"type":"Point","coordinates":[-87.477854,36.84145]}},{"type":"Feature","properties":{"Nearest_Kroger":"1265 Goss Ave","City":" Louisville","State":"KY","Zip":"40217","Lat":"38.2259752","Long":"-85.7299911"},"geometry":{"type":"Point","coordinates":[-85.729991,38.225975]}},{"type":"Feature","properties":{"Nearest_Kroger":"705 E Main St","City":" Lebanon","State":"KY","Zip":"40033","Lat":"37.57565269","Long":"-85.23398155"},"geometry":{"type":"Point","coordinates":[-85.233982,37.575653]}},{"type":"Feature","properties":{"Nearest_Kroger":"381 Market Square Dr","City":" Maysville","State":"KY","Zip":"41056","Lat":"38.6255768","Long":"-83.7911139"},"geometry":{"type":"Point","coordinates":[-83.791114,38.625577]}},{"type":"Feature","properties":{"Nearest_Kroger":"234 Eastbrooke Pkwy","City":" Mt Washington","State":"KY","Zip":"40047","Lat":"38.05680553","Long":"-85.53742379"},"geometry":{"type":"Point","coordinates":[-85.537424,38.056806]}},{"type":"Feature","properties":{"Nearest_Kroger":"212 Kroger Way","City":" Versailles","State":"KY","Zip":"40383","Lat":"38.0528652","Long":"-84.71142421"},"geometry":{"type":"Point","coordinates":[-84.711424,38.052865]}},{"type":"Feature","properties":{"Nearest_Kroger":"2200 Brownsboro Rd","City":" Louisville","State":"KY","Zip":"40206","Lat":"38.2579292","Long":"-85.70429094"},"geometry":{"type":"Point","coordinates":[-85.704291,38.257929]}},{"type":"Feature","properties":{"Nearest_Kroger":"1700 Declaration Dr","City":" Independence","State":"KY","Zip":"41051","Lat":"38.9308866","Long":"-84.546192"},"geometry":{"type":"Point","coordinates":[-84.546192,38.930887]}},{"type":"Feature","properties":{"Nearest_Kroger":"111 Towne Dr","City":" Elizabethtown","State":"KY","Zip":"42701","Lat":"37.73368784","Long":"-85.88757889"},"geometry":{"type":"Point","coordinates":[-85.887579,37.733688]}},{"type":"Feature","properties":{"Nearest_Kroger":"545 Island Ford Rd","City":" Madisonville","State":"KY","Zip":"42431","Lat":"37.35140468","Long":"-87.49080654"},"geometry":{"type":"Point","coordinates":[-87.490807,37.351405]}},{"type":"Feature","properties":{"Nearest_Kroger":"1600 Leestown Rd","City":" Lexington","State":"KY","Zip":"40511","Lat":"38.067898","Long":"-84.526936"},"geometry":{"type":"Point","coordinates":[-84.526936,38.067898]}},{"type":"Feature","properties":{"Nearest_Kroger":"53 Donnermeyer Dr","City":" Bellevue","State":"KY","Zip":"41073","Lat":"39.09930115","Long":"-84.48177328"},"geometry":{"type":"Point","coordinates":[-84.481773,39.099301]}},{"type":"Feature","properties":{"Nearest_Kroger":"2630 Frederica St","City":" Owensboro","State":"KY","Zip":"42301","Lat":"37.74999845","Long":"-87.1160554"},"geometry":{"type":"Point","coordinates":[-87.116055,37.749998]}},{"type":"Feature","properties":{"Nearest_Kroger":"2710 W Broadway","City":" Louisville","State":"KY","Zip":"40211","Lat":"38.24842115","Long":"-85.79686537"},"geometry":{"type":"Point","coordinates":[-85.796865,38.248421]}},{"type":"Feature","properties":{"Nearest_Kroger":"200 Skywatch Dr","City":" Danville","State":"KY","Zip":"40422","Lat":"37.6170492","Long":"-84.7846124"},"geometry":{"type":"Point","coordinates":[-84.784612,37.617049]}},{"type":"Feature","properties":{"Nearest_Kroger":"1650 Bryan Station Rd","City":" Lexington","State":"KY","Zip":"40505","Lat":"38.06049366","Long":"-84.46328361"},"geometry":{"type":"Point","coordinates":[-84.463284,38.060494]}},{"type":"Feature","properties":{"Nearest_Kroger":"12450 La Grange Rd","City":" Louisville","State":"KY","Zip":"40245","Lat":"38.2905719","Long":"-85.5088591"},"geometry":{"type":"Point","coordinates":[-85.508859,38.290572]}},{"type":"Feature","properties":{"Nearest_Kroger":"1525 Madison Ave","City":" Covington","State":"KY","Zip":"41011","Lat":"39.07287525","Long":"-84.50847571"},"geometry":{"type":"Point","coordinates":[-84.508476,39.072875]}},{"type":"Feature","properties":{"Nearest_Kroger":"311 Boone Station Rd","City":" Shelbyville","State":"KY","Zip":"40065","Lat":"38.218012","Long":"-85.20365"},"geometry":{"type":"Point","coordinates":[-85.20365,38.218012]}},{"type":"Feature","properties":{"Nearest_Kroger":"185 Adam Shepherd Pkwy","City":" Shepherdsville","State":"KY","Zip":"40165","Lat":"37.9917293","Long":"-85.7106952"},"geometry":{"type":"Point","coordinates":[-85.710695,37.991729]}},{"type":"Feature","properties":{"Nearest_Kroger":"2549 KY-227","City":" Carrollton","State":"KY","Zip":"41008","Lat":"38.6563429","Long":"-85.1353579"},"geometry":{"type":"Point","coordinates":[-85.135358,38.656343]}}]}